OBJECT_NAME,OBJECT_ID,EPOCH,MEAN_MOTION,ECCENTRICITY,INCLINATION,RA_OF_ASC_NODE,ARG_OF_PERICENTER,MEAN_ANOMALY,EPHEMERIS_TYPE,CLASSIFICATION_TYPE,NORAD_CAT_ID,ELEMENT_SET_NO,REV_AT_EPOCH,BSTAR,MEAN_MOTION_DOT,MEAN_MOTION_DDOT
STARLINK-37472,2026-111AA,2026-06-09T04:00:03.000096,15.78057257,.0001152,53.1599,191.6598,93.0302,294.9474,0,U,69172,999,425,-.578E-4,-.10692E-3,0
STARLINK-37461,2026-111AB,2026-06-09T04:00:03.000096,15.62930866,.0001178,53.1591,191.8864,99.2917,177.9962,0,U,69173,999,425,-.31443E-1,-.2522622E-1,0
STARLINK-37333,2026-111AC,2026-06-09T01:01:54.214176,15.78079962,.0001033,53.1580,192.3680,71.6931,288.4202,0,U,69174,999,297,.81288E-3,.143016E-2,0
STARLINK-37385,2026-111AD,2026-06-09T04:00:03.000096,15.64923141,.0000877,53.1599,191.8359,86.7820,214.9539,0,U,69175,999,425,-.29299E-1,-.2542085E-1,0
STARLINK-37414,2026-111AE,2026-06-09T04:00:03.000096,15.78080221,.0001249,53.1592,191.7006,91.7483,276.3828,0,U,69176,999,425,-.13238E-3,-.23616E-3,0
STRIX-7,2026-112A,2026-06-09T01:19:17.896800,15.01394446,.0023988,44.9066,235.1599,1.0213,359.0703,0,U,69177,999,265,.22552E-3,.2737E-4,0
SHENZHOU-23 (SZ-23),2026-113A,2026-06-08T12:43:02.663616,15.60445632,.00085483,41.4696,14.6734,8.8388,351.2600,0,U,69180,999,29188,.29104009E-3,.24398E-3,0
STARLINK-37380,2026-114A,2026-06-09T01:11:25.346688,15.78129901,.0000939,53.1583,243.1222,96.0275,264.0854,0,U,69182,999,348,.83947E-3,.148137E-2,0
STARLINK-37089,2026-114B,2026-06-09T01:10:04.764000,15.78106124,.0000758,53.1583,243.1147,108.6846,251.4258,0,U,69183,999,348,.65016E-3,.113995E-2,0
STARLINK-37428,2026-114C,2026-06-09T01:08:03.083424,15.78136434,.0000676,53.1582,243.1059,117.0467,243.0623,0,U,69184,999,348,.10857E-2,.192852E-2,0
STARLINK-37237,2026-114D,2026-06-09T01:04:05.474784,15.78111788,.000077,53.1587,243.0871,109.7286,250.3819,0,U,69185,999,348,.77803E-3,.136952E-2,0
STARLINK-37365,2026-114E,2026-06-09T01:04:32.346048,15.78127144,.0000933,53.1587,243.0889,121.0855,239.0258,0,U,69186,999,348,.82658E-3,.145794E-2,0
STARLINK-37209,2026-114F,2026-06-09T01:03:25.932096,15.78137733,.0001334,53.1586,243.0841,345.7130,14.3854,0,U,69187,999,348,.12997E-2,.232093E-2,0
STARLINK-37359,2026-114G,2026-06-09T01:02:47.662080,15.78140265,.0001119,53.1587,243.0814,354.2949,5.8059,0,U,69188,999,348,.12342E-2,.220078E-2,0
STARLINK-37440,2026-114H,2026-06-09T04:00:03.000096,15.80792998,.0001017,53.1592,242.0279,107.0458,84.4424,0,U,69189,999,352,.73764E-3,.146843E-2,0
STARLINK-37282,2026-114J,2026-06-09T04:00:03.000096,15.78039563,.0000866,53.1600,242.3897,107.4602,268.9986,0,U,69190,999,352,-.14854E-4,-.3243E-4,0
STARLINK-37422,2026-114K,2026-06-09T02:19:53.225184,15.80952711,.0000842,53.1591,242.6995,113.9362,246.1749,0,U,69191,999,349,.91388E-3,.184247E-2,0
STARLINK-37424,2026-114L,2026-06-09T04:00:03.000096,15.78000337,.0001144,53.1597,242.3921,93.3773,282.4805,0,U,69192,999,352,.35878E-3,.61925E-3,0
STARLINK-36666,2026-114M,2026-06-09T02:20:12.432768,15.80914292,.0000829,53.1589,242.7016,28.8697,331.2372,0,U,69193,999,349,.55256E-3,.109966E-2,0
STARLINK-37355,2026-114N,2026-06-09T02:19:07.497984,15.80873192,.0001336,53.1590,242.6960,30.4724,329.6376,0,U,69194,999,349,.1033E-3,.19735E-3,0
STARLINK-37166,2026-114P,2026-06-09T02:16:57.161856,15.80866914,.0000901,53.1590,242.6852,58.6611,301.4500,0,U,69195,999,349,.23597E-3,.4611E-3,0
STARLINK-36933,2026-114Q,2026-06-09T02:18:02.830176,15.80907362,.0001302,53.1588,242.6909,12.8650,347.2406,0,U,69196,999,349,.53306E-3,.105979E-2,0
STARLINK-37419,2026-114R,2026-06-09T02:15:52.976160,15.80987085,.0001077,53.1587,242.6804,143.2629,216.8467,0,U,69197,999,349,.13443E-2,.274678E-2,0
STARLINK-37321,2026-114S,2026-06-09T02:14:48.189120,15.80932241,.0000688,53.1591,242.6761,65.4776,294.6318,0,U,69198,999,349,.84327E-3,.169504E-2,0
STARLINK-37406,2026-114T,2026-06-09T02:13:43.228416,15.81000505,.0001308,53.1587,242.6706,134.2208,225.8922,0,U,69199,999,349,.13965E-2,.285912E-2,0
STARLINK-37761,2026-114U,2026-06-09T02:12:38.640096,15.80945289,.0001097,53.1587,242.6648,122.6012,237.5117,0,U,69200,999,349,.81088E-3,.162939E-2,0
STARLINK-37754,2026-114V,2026-06-09T02:11:16.955808,15.80981488,.0000624,53.1585,242.6588,118.3543,241.7542,0,U,69201,999,349,.1231E-2,.25071E-2,0
STARLINK-37649,2026-114W,2026-06-09T02:10:28.949376,15.80964177,.0000695,53.1589,242.6561,119.9912,240.1180,0,U,69202,999,349,.10261E-2,.207639E-2,0
STARLINK-37604,2026-114X,2026-06-09T02:09:23.992992,15.80996706,.0000756,53.1586,242.6504,140.8807,219.2270,0,U,69203,999,349,.13788E-2,.282112E-2,0
STARLINK-37669,2026-114Y,2026-06-09T02:08:19.262112,15.80993191,.0001078,53.1584,242.6450,118.8123,241.3009,0,U,69204,999,349,.13117E-2,.267855E-2,0
